[{"OBJECT_NAME":"IRIDIUM 33 DEB","OBJECT_ID":"1997-051QS","EPOCH":"2026-03-05T18:25:05.119968","MEAN_MOTION":14.40556949,"ECCENTRICITY":0.01306916,"INCLINATION":86.3913,"RA_OF_ASC_NODE":182.3886,"ARG_OF_PERICENTER":344.0446,"MEAN_ANOMALY":15.6652,"EPHEMERIS_TYPE":0,"CLASSIFICATION_TYPE":"U","NORAD_CAT_ID":35620,"ELEMENT_SET_NO":999,"REV_AT_EPOCH":61160,"BSTAR":0.0029057229,"MEAN_MOTION_DOT":0.00010264,"MEAN_MOTION_DDOT":0},{"OBJECT_NAME":"IRIDIUM 33 DEB","OBJECT_ID":"1997-051QU","EPOCH":"2026-03-06T21:30:36.725760","MEAN_MOTION":15.1392326,"ECCENTRICITY":0.00066128,"INCLINATION":86.1939,"RA_OF_ASC_NODE":221.7716,"ARG_OF_PERICENTER":310.8118,"MEAN_ANOMALY":200.8607,"EPHEMERIS_TYPE":0,"CLASSIFICATION_TYPE":"U","NORAD_CAT_ID":35622,"ELEMENT_SET_NO":999,"REV_AT_EPOCH":88629,"BSTAR":0.0026660321,"MEAN_MOTION_DOT":0.00048579,"MEAN_MOTION_DDOT":0},{"OBJECT_NAME":"IRIDIUM 33 DEB","OBJECT_ID":"1997-051RA","EPOCH":"2026-03-07T00:15:50.353344","MEAN_MOTION":14.6918387,"ECCENTRICITY":0.00138038,"INCLINATION":86.3596,"RA_OF_ASC_NODE":331.46,"ARG_OF_PERICENTER":45.9686,"MEAN_ANOMALY":314.2663,"EPHEMERIS_TYPE":0,"CLASSIFICATION_TYPE":"U","NORAD_CAT_ID":35628,"ELEMENT_SET_NO":999,"REV_AT_EPOCH":87683,"BSTAR":0.0013633348,"MEAN_MOTION_DOT":8.059e-5,"MEAN_MOTION_DDOT":0},{"OBJECT_NAME":"IRIDIUM 33 DEB","OBJECT_ID":"1997-051RD","EPOCH":"2026-03-07T05:45:48.027744","MEAN_MOTION":14.47625787,"ECCENTRICITY":0.0015778,"INCLINATION":86.3728,"RA_OF_ASC_NODE":344.5971,"ARG_OF_PERICENTER":192.5791,"MEAN_ANOMALY":320.9949,"EPHEMERIS_TYPE":0,"CLASSIFICATION_TYPE":"U","NORAD_CAT_ID":35631,"ELEMENT_SET_NO":999,"REV_AT_EPOCH":88419,"BSTAR":0.0005016,"MEAN_MOTION_DOT":1.87e-5,"MEAN_MOTION_DDOT":0},{"OBJECT_NAME":"IRIDIUM 33 DEB","OBJECT_ID":"1997-051RJ","EPOCH":"2026-03-03T13:37:30.156096","MEAN_MOTION":14.22211774,"ECCENTRICITY":0.0154844,"INCLINATION":86.1052,"RA_OF_ASC_NODE":345.7068,"ARG_OF_PERICENTER":22.2182,"MEAN_ANOMALY":95.9581,"EPHEMERIS_TYPE":0,"CLASSIFICATION_TYPE":"U","NORAD_CAT_ID":35680,"ELEMENT_SET_NO":999,"REV_AT_EPOCH":61849,"BSTAR":0.0042353,"MEAN_MOTION_DOT":0.00010642,"MEAN_MOTION_DDOT":0},{"OBJECT_NAME":"IRIDIUM 33 DEB","OBJECT_ID":"1997-051RX","EPOCH":"2026-03-06T08:44:54.067488","MEAN_MOTION":14.72355333,"ECCENTRICITY":0.00187734,"INCLINATION":86.3249,"RA_OF_ASC_NODE":287.6142,"ARG_OF_PERICENTER":271.7574,"MEAN_ANOMALY":88.1493,"EPHEMERIS_TYPE":0,"CLASSIFICATION_TYPE":"U","NORAD_CAT_ID":35744,"ELEMENT_SET_NO":999,"REV_AT_EPOCH":88561,"BSTAR":0.001079629,"MEAN_MOTION_DOT":6.873e-5,"MEAN_MOTION_DDOT":0},{"OBJECT_NAME":"IRIDIUM 33 DEB","OBJECT_ID":"1997-051SF","EPOCH":"2026-03-06T22:09:21.131136","MEAN_MOTION":14.8563022,"ECCENTRICITY":0.0008904,"INCLINATION":86.3353,"RA_OF_ASC_NODE":291.211,"ARG_OF_PERICENTER":224.1367,"MEAN_ANOMALY":135.9148,"EPHEMERIS_TYPE":0,"CLASSIFICATION_TYPE":"U","NORAD_CAT_ID":35797,"ELEMENT_SET_NO":999,"REV_AT_EPOCH":88589,"BSTAR":0.0015000171,"MEAN_MOTION_DOT":0.00013032,"MEAN_MOTION_DDOT":0},{"OBJECT_NAME":"IRIDIUM 33 DEB","OBJECT_ID":"1997-051SQ","EPOCH":"2026-03-07T11:49:10.922592","MEAN_MOTION":14.5845303,"ECCENTRICITY":0.00141971,"INCLINATION":86.3492,"RA_OF_ASC_NODE":343.294,"ARG_OF_PERICENTER":133.7788,"MEAN_ANOMALY":226.4599,"EPHEMERIS_TYPE":0,"CLASSIFICATION_TYPE":"U","NORAD_CAT_ID":35806,"ELEMENT_SET_NO":999,"REV_AT_EPOCH":87559,"BSTAR":0.0015826939,"MEAN_MOTION_DOT":7.373e-5,"MEAN_MOTION_DDOT":0},{"OBJECT_NAME":"IRIDIUM 33 DEB","OBJECT_ID":"1997-051ST","EPOCH":"2026-03-02T09:52:47.724672","MEAN_MOTION":14.77775546,"ECCENTRICITY":0.00119409,"INCLINATION":86.3258,"RA_OF_ASC_NODE":299.0145,"ARG_OF_PERICENTER":341.4382,"MEAN_ANOMALY":18.64,"EPHEMERIS_TYPE":0,"CLASSIFICATION_TYPE":"U","NORAD_CAT_ID":35809,"ELEMENT_SET_NO":999,"REV_AT_EPOCH":87983,"BSTAR":0.0015133331,"MEAN_MOTION_DOT":0.00010902,"MEAN_MOTION_DDOT":0},{"OBJECT_NAME":"IRIDIUM 33 DEB","OBJECT_ID":"1997-051SW","EPOCH":"2026-03-06T07:23:26.021184","MEAN_MOTION":14.43542666,"ECCENTRICITY":0.00153911,"INCLINATION":86.3784,"RA_OF_ASC_NODE":23.1548,"ARG_OF_PERICENTER":259.2944,"MEAN_ANOMALY":100.6524,"EPHEMERIS_TYPE":0,"CLASSIFICATION_TYPE":"U","NORAD_CAT_ID":35846,"ELEMENT_SET_NO":999,"REV_AT_EPOCH":72534,"BSTAR":0.00089912342,"MEAN_MOTION_DOT":3.066e-5,"MEAN_MOTION_DDOT":0},{"OBJECT_NAME":"IRIDIUM 33 DEB","OBJECT_ID":"1997-051SY","EPOCH":"2026-03-05T00:41:02.530464","MEAN_MOTION":14.81095014,"ECCENTRICITY":0.00052917,"INCLINATION":86.3931,"RA_OF_ASC_NODE":339.058,"ARG_OF_PERICENTER":297.2212,"MEAN_ANOMALY":62.847,"EPHEMERIS_TYPE":0,"CLASSIFICATION_TYPE":"U","NORAD_CAT_ID":35848,"ELEMENT_SET_NO":999,"REV_AT_EPOCH":67907,"BSTAR":0.002045193,"MEAN_MOTION_DOT":0.00015922,"MEAN_MOTION_DDOT":0},{"OBJECT_NAME":"IRIDIUM 33 DEB","OBJECT_ID":"1997-051TA","EPOCH":"2026-03-04T22:56:17.582784","MEAN_MOTION":14.81217971,"ECCENTRICITY":0.00076163,"INCLINATION":86.3508,"RA_OF_ASC_NODE":306.7887,"ARG_OF_PERICENTER":284.6052,"MEAN_ANOMALY":75.4325,"EPHEMERIS_TYPE":0,"CLASSIFICATION_TYPE":"U","NORAD_CAT_ID":35850,"ELEMENT_SET_NO":999,"REV_AT_EPOCH":72573,"BSTAR":0.0017234796,"MEAN_MOTION_DOT":0.0001346,"MEAN_MOTION_DDOT":0},{"OBJECT_NAME":"IRIDIUM 33 DEB","OBJECT_ID":"1997-051TY","EPOCH":"2026-03-06T22:37:00.437952","MEAN_MOTION":14.83541192,"ECCENTRICITY":0.0008751,"INCLINATION":86.342,"RA_OF_ASC_NODE":304.4046,"ARG_OF_PERICENTER":270.7064,"MEAN_ANOMALY":89.3157,"EPHEMERIS_TYPE":0,"CLASSIFICATION_TYPE":"U","NORAD_CAT_ID":35915,"ELEMENT_SET_NO":999,"REV_AT_EPOCH":9333,"BSTAR":0.0016032561,"MEAN_MOTION_DOT":0.00013241,"MEAN_MOTION_DDOT":0},{"OBJECT_NAME":"IRIDIUM 33 DEB","OBJECT_ID":"1997-051UB","EPOCH":"2026-03-06T05:03:54.053856","MEAN_MOTION":14.52050989,"ECCENTRICITY":0.00233524,"INCLINATION":86.4015,"RA_OF_ASC_NODE":39.946,"ARG_OF_PERICENTER":251.9311,"MEAN_ANOMALY":168.2014,"EPHEMERIS_TYPE":0,"CLASSIFICATION_TYPE":"U","NORAD_CAT_ID":35918,"ELEMENT_SET_NO":999,"REV_AT_EPOCH":86418,"BSTAR":0.0013049206,"MEAN_MOTION_DOT":5.314e-5,"MEAN_MOTION_DDOT":0},{"OBJECT_NAME":"IRIDIUM 33 DEB","OBJECT_ID":"1997-051UN","EPOCH":"2026-03-04T07:19:03.280512","MEAN_MOTION":15.09298145,"ECCENTRICITY":0.0015419,"INCLINATION":86.3396,"RA_OF_ASC_NODE":273.7871,"ARG_OF_PERICENTER":83.8088,"MEAN_ANOMALY":276.4906,"EPHEMERIS_TYPE":0,"CLASSIFICATION_TYPE":"U","NORAD_CAT_ID":35929,"ELEMENT_SET_NO":999,"REV_AT_EPOCH":89007,"BSTAR":0.0037250994,"MEAN_MOTION_DOT":0.00059943,"MEAN_MOTION_DDOT":0},{"OBJECT_NAME":"IRIDIUM 33 DEB","OBJECT_ID":"1997-051US","EPOCH":"2026-03-07T13:33:29.253024","MEAN_MOTION":14.41666517,"ECCENTRICITY":0.00170223,"INCLINATION":86.346,"RA_OF_ASC_NODE":358.9882,"ARG_OF_PERICENTER":308.0172,"MEAN_ANOMALY":177.2429,"EPHEMERIS_TYPE":0,"CLASSIFICATION_TYPE":"U","NORAD_CAT_ID":36011,"ELEMENT_SET_NO":999,"REV_AT_EPOCH":65762,"BSTAR":0.00071595645,"MEAN_MOTION_DOT":2.354e-5,"MEAN_MOTION_DDOT":0}]
